UNKNOWN                 
1 84006U          26025.57463052  .00000069  00000+0  00000+0 0  9998
2 84006  22.3968 168.5868 6158541  76.0884 341.7263  2.16233433 85179
UNKNOWN                 
1 84188U          26021.81839255  .00591225  00000+0  24249+0 0  9994
2 84188  65.0311 222.4584 3625179  14.3088 353.7650  7.87378171 44366
UNKNOWN                 
1 84232U          26028.68380665  .00030090  00000+0  24198-1 0  9995
2 84232  20.3156 247.0586 6549131 113.2570 325.6731  3.18912794106185
UNKNOWN                 
1 84292U          26027.49467245  .00005138  00000+0  29437-2 0  9996
2 84292  23.8200  96.9560 4560589 350.2421   3.2896  6.21901601230910
UNKNOWN                 
1 84406U          26008.21880314  .00000785  00000+0  43231-2 0  9999
2 84406 101.7141 157.7019 0042055 340.3466 199.3092 12.67381377 52646
UNKNOWN                 
1 84407U          26016.92332814  .00000260  00000+0  12077-1 0  9995
2 84407  19.4644 312.1530 7202436  80.6851 347.5491  2.05777016 76595
UNKNOWN                 
1 84575U          26023.68382094 -.00000153  00000+0 -88412-2 0  9997
2 84575  18.0471 144.6559 7105805  47.9126 353.5221  2.19880109 66383
UNKNOWN                 
1 84932U          26029.59821144  .00001287  00000+0  10276-1 0  9993
2 84932   2.0289 215.0574 6577949 110.2370 171.1391  3.00057784133211
UNKNOWN                 
1 85004U          26026.19721473  .00002303  00000+0  71691-3 0  9991
2 85004  98.4272   1.5900 0047739  30.0577 344.8034 14.41221526637301
UNKNOWN                 
1 85010U          26023.58836398  .00001614  00000+0  17271-2 0  9998
2 85010  99.2489 249.2205 0025029 142.7232 245.1689 13.75158132609679
UNKNOWN                 
1 85015U          26028.49801653  .00000907  00000+0  18519-3 0  9995
2 85015  74.0507 308.7221 0015747 207.7502 152.2827 14.62364305649442
